{"type": "FeatureCollection", "name": "rute", "crs": {"type": "name", "properties": {"name": "urn:ogc:def:crs:OGC:1.3:CRS84"}}, "features": [{"type": "Feature", "properties": {"trip_id": 1, "nama": "Trip 1", "kendaraan": "Truk tronton", "kode_kendaraan": "K-01", "trayek": "Cilegon – Jakarta", "arah": "Jakarta ke Cilegon", "hari": "Senin", "tanggal": "03-03-2025", "jam_mulai": "00:49", "jam_selesai": "03:58", "jam_berangkat": 0, "durasi_menit": 189.5, "kecepatan_rata": 40.1, "kecepatan_maks": 60.3, "jumlah_titik": 380, "jarak_km": 126.79, "liter_total": 44.36, "liter_jalan": 42.61, "liter_idle": 1.75, "menit_idle": 42.0, "liter_per_100km": 34.99, "km_per_liter": 2.86, "biaya_rp": 301659, "liter_boros": 2.1, "biaya_boros_rp": 14275, "jenis_bbm": "Biosolar", "harga_per_liter": 6800, "malam": true}, "geometry": {"type": "LineString", "coordinates": [[106.893547, -6.120271], [106.893054, -6.11757], [106.893433, -6.129994], [106.890921, -6.130698], [106.88798, -6.128808], [106.884158, -6.126886], [106.880414, -6.125893], [106.861322, -6.122076], [106.857937, -6.123001], [106.850378, -6.126078], [106.839583, -6.128762], [106.831617, -6.130139], [106.827353, -6.130529], [106.822876, -6.1313], [106.818733, -6.131527], [106.814879, -6.129663], [106.810621, -6.130197], [106.803221, -6.131829], [106.794517, -6.132294], [106.790601, -6.132162], [106.784102, -6.131071], [106.781091, -6.129584], [106.777893, -6.126494], [106.775899, -6.12343], [106.77284, -6.121614], [106.769554, -6.121489], [106.766269, -6.122], [106.758052, -6.1226], [106.745613, -6.122143], [106.738401, -6.11931], [106.735629, -6.117409], [106.732937, -6.116365], [106.73209, -6.120031], [106.730513, -6.122969], [106.729773, -6.126438], [106.729904, -6.133981], [106.72973, -6.137935], [106.72918, -6.141672], [106.727425, -6.150007], [106.72697, -6.157995], [106.727162, -6.166204], [106.728384, -6.178801], [106.730149, -6.186655], [106.729067, -6.190486], [106.725126, -6.190528], [106.720772, -6.191371], [106.71702, -6.193411], [106.697957, -6.208098], [106.694565, -6.209921], [106.668199, -6.217369], [106.664496, -6.218166], [106.616986, -6.224863], [106.612747, -6.225012], [106.57517, -6.221595], [106.567982, -6.220717], [106.564111, -6.219844], [106.559837, -6.218444], [106.555798, -6.216396], [106.552828, -6.214372], [106.547074, -6.209618], [106.543787, -6.207966], [106.540314, -6.207181], [106.532537, -6.205802], [106.517592, -6.205086], [106.513521, -6.20456], [106.492417, -6.200077], [106.48893, -6.200033], [106.484702, -6.200803], [106.47397, -6.20534], [106.47079, -6.205955], [106.46676, -6.205784], [106.463059, -6.204841], [106.460038, -6.203488], [106.459271, -6.199496], [106.457877, -6.196936], [106.447176, -6.211226], [106.444447, -6.214696], [106.441462, -6.217918], [106.43477, -6.227032], [106.431895, -6.228591], [106.427754, -6.227376], [106.424555, -6.226018], [106.421567, -6.222822], [106.419635, -6.220259], [106.416836, -6.218653], [106.405576, -6.21581], [106.401691, -6.215587], [106.398544, -6.214123], [106.394781, -6.213675], [106.391125, -6.211091], [106.384673, -6.207376], [106.381316, -6.209347], [106.377187, -6.209351], [106.374476, -6.206624], [106.368065, -6.205733], [106.364424, -6.205398], [106.361691, -6.207185], [106.357446, -6.207809], [106.353593, -6.207145], [106.350659, -6.204758], [106.34891, -6.201077], [106.347681, -6.197742], [106.343806, -6.190577], [106.342001, -6.186455], [106.338586, -6.177124], [106.332976, -6.168397], [106.327378, -6.163003], [106.324369, -6.161589], [106.321574, -6.159827], [106.317198, -6.154843], [106.314355, -6.153351], [106.311933, -6.151216], [106.3094, -6.14798], [106.305499, -6.140718], [106.302546, -6.138037], [106.299522, -6.136295], [106.296411, -6.137095], [106.292731, -6.139086], [106.288437, -6.140092], [106.285855, -6.14187], [106.282737, -6.143185], [106.278549, -6.143448], [106.274869, -6.142965], [106.263419, -6.139609], [106.260117, -6.138983], [106.227742, -6.138274], [106.223398, -6.138095], [106.219302, -6.137369], [106.198118, -6.129814], [106.195109, -6.128554], [106.192326, -6.126289], [106.190531, -6.122962], [106.189081, -6.119645], [106.187045, -6.116408], [106.17386, -6.102433], [106.170682, -6.099483], [106.167941, -6.097488], [106.164272, -6.095258], [106.160676, -6.093696], [106.140545, -6.086751], [106.136628, -6.08473], [106.134381, -6.082153], [106.121768, -6.05836], [106.119535, -6.054637], [106.114931, -6.048862], [106.109134, -6.043845], [106.104325, -6.038618], [106.095796, -6.025545], [106.090233, -6.019716], [106.087295, -6.017243], [106.083811, -6.014962], [106.074358, -6.010262], [106.067589, -6.006125], [106.064754, -6.003911], [106.050618, -5.99088], [106.047028, -5.989754], [106.043852, -5.990023], [106.039926, -5.989024], [106.036877, -5.986872], [106.034329, -5.984591], [106.031817, -5.984062], [106.032416, -5.987121], [106.030628, -5.990659], [106.028077, -5.994199], [106.025511, -5.995708], [106.022511, -5.996506], [106.022505, -6.000236], [106.022912, -6.00262]]}}]}