{"type": "FeatureCollection", "name": "titik_ujung", "crs": {"type": "name", "properties": {"name": "urn:ogc:def:crs:OGC:1.3:CRS84"}}, "features": [{"type": "Feature", "properties": {"trip_id": 1, "jenis": "Titik Awal", "hari": "Senin", "waktu": "03-03-2025 00:49", "jarak_km": 126.79, "liter_total": 44.36, "biaya_rp": 301659}, "geometry": {"type": "Point", "coordinates": [106.893547, -6.120271]}}, {"type": "Feature", "properties": {"trip_id": 1, "jenis": "Titik Akhir", "hari": "Senin", "waktu": "03-03-2025 03:58", "jarak_km": 126.79, "liter_total": 44.36, "biaya_rp": 301659}, "geometry": {"type": "Point", "coordinates": [106.022912, -6.00262]}}]}